satname,norad_id,inclination_deg,eccentricity,mean_motion_rev_per_day,perigee_km,apogee_km,l1,l2
STARLINK-1008,44714,53.1565,0.0001217,15.31013646,471.95298767359964,473.62050251315486,1 44714U 19074B   26049.84081356  .00002470  00000+0  93222-4 0  9991,2 44714  53.1565 266.4208 0001217  80.6272 279.4866 15.31013646345982
STARLINK-1012,44718,53.1575,0.0001224,15.30197027,474.3850948959871,476.0627976556343,1 44718U 19074F   26049.81088591 -.00000498  00000+0 -46765-5 0  9991,2 44718  53.1575 266.4947 0001224 113.2413 246.8717 15.30197027345972
STARLINK-1017,44723,53.0479,0.0003524,15.22396037,496.19240911504494,501.039144472129,1 44723U 19074L   26049.77714007  .00034266  00000+0  14716-2 0  9996,2 44723  53.0479 258.5888 0003524 120.9353 239.1989 15.22396037346081
STARLINK-1019,44724,53.0441,0.0007114,15.76192897,336.45863154286235,346.0189594246758,1 44724U 19074M   26049.91671296  .00264832  00000+0  16078-2 0  9992,2 44724  53.0441 230.7473 0007114 136.9592  99.6074 15.76192897  5964
STARLINK-1020,44725,53.0995,0.0002016,15.17525768,511.9318640268275,514.7104999658086,1 44725U 19074N   26049.91671296  .00023290  00000+0  11588-2 0  9995,2 44725  53.0995 290.6072 0002016  93.8662 109.8499 15.17525768  5848
STARLINK-1031,44736,53.0421,0.0002661,15.8306148,320.00585653987855,323.5715570010216,1 44736U 19074Z   26049.91671296  .00240301  00000+0  10724-2 0  9992,2 44736  53.0421 215.1917 0002661 206.4826  75.0305 15.83061480  5988
STARLINK-1036,44741,53.0523,0.0005498,15.51867216,407.5417436583357,415.007380612059,1 44741U 19074AE  26049.83038882  .00081673  00000+0  13338-2 0  9996,2 44741  53.0523 279.5549 0005498 149.6568 210.4760 15.51867216345796
STARLINK-1039,44744,53.0457,0.0006568,15.19835131,501.81672233155405,510.86016927716264,1 44744U 19074AH  26049.09553195  .00041881  00000+0  19324-2 0  9994,2 44744  53.0457 305.0350 0006568 112.5044 247.6647 15.19835131345372
STARLINK-1042,44747,53.044,0.000276,15.48786375,418.39886878127254,422.1515923325396,1 44747U 19074AL  26049.68771441  .00021977  00000+0  40943-3 0  9994,2 44747  53.0440 185.8882 0002760 110.9816 249.1486 15.48786375347120
STARLINK-1043,44748,53.0521,0.0002903,15.52375838,407.8209523575342,411.76202363766606,1 44748U 19074AM  26049.86595576  .00024740  00000+0  40500-3 0  9998,2 44748  53.0521 285.2251 0002903  76.5073 283.6260 15.52375838345727
STARLINK-1046,44751,53.0553,0.0007696,15.41991579,434.9846736365089,445.4795073405885,1 44751U 19074AQ  26048.98122552  .00016442  00000+0  38833-3 0  9990,2 44751  53.0553 304.3858 0007696 113.1174 247.0642 15.41991579345379
STARLINK-1047,44752,53.0695,0.0004539,15.32098158,466.4451973353807,472.66153064781156,1 44752U 19074AR  26049.71199745  .00009919  00000+0  32689-3 0  9995,2 44752  53.0695 234.6294 0004539 144.5026 215.6277 15.32098158346437
STARLINK-1048,44753,53.053,0.0005102,15.50421285,412.02902232639553,418.96124455535755,1 44753U 19074AS  26049.84135875  .00021500  00000+0  37835-3 0  9992,2 44753  53.0530 259.4952 0005102 126.9359 233.2117 15.50421285346072
STARLINK-1053,44758,53.0305,0.0003578,15.83191365,319.02515824163675,323.81936284848234,1 44758U 19074AX  26049.91671296  .00159611  00000+0  71552-3 0  9996,2 44758  53.0305 178.6830 0003578 337.4019  41.8779 15.83191365  6036
STARLINK-1063,44768,53.1574,0.0001142,15.30210284,474.4017141212971,475.96701272070186,1 44768U 19074BH  26049.33335647 -.00021167  00000+0 -70434-3 0  9994,2 44768  53.1574 309.3066 0001142  95.5770 151.9302 15.30210284  5815
STARLINK-1067,44771,53.0548,0.0001003,15.53385002,406.17076177929994,407.53183043149875,1 44771U 19074BL  26049.86674418  .00084650  00000+0  13088-2 0  9993,2 44771  53.0548 295.2156 0001003 115.7268 244.3846 15.53385002345582
STARLINK-1068,44772,53.0509,0.0005141,15.59216366,386.44434151263795,393.4032616288123,1 44772U 19074BM  26049.86640238  .00104857  00000+0  13011-2 0  9995,2 44772  53.0509 271.7468 0005141 147.3100 212.8231 15.59216366345904
STARLINK-1112,44925,53.0422,0.0002687,15.94559197,287.7513142118705,291.3345254007745,1 44925U 20001M   26049.91671296  .00339107  56153-4  88017-3 0  9993,2 44925  53.0422 338.1945 0002687 114.9126  13.4513 15.94559197  5942
STARLINK-1114,44927,53.0511,0.0008166,15.46924173,420.1740940197942,431.2861698196457,1 44927U 20001P   26049.89704918  .00075291  00000+0  14638-2 0  9993,2 44927  53.0511  59.3319 0008166  43.8442 316.3211 15.46924173337180
STARLINK-1123,44930,53.054,0.0001361,15.06393129,546.2900738388907,548.1751594485413,1 44930U 20001S   26049.54912082 -.00000559  00000+0 -18628-4 0  9994,2 44930  53.0540  72.5455 0001361  91.9571 268.1573 15.06393129336968
STARLINK-1094,44941,53.1602,0.0001204,15.30188331,474.4247633872819,476.07505895549093,1 44941U 20001AD  26049.28499154 -.00000778  00000+0 -14136-4 0  9990,2 44941  53.1602  49.6896 0001204 101.3170 258.7966 15.30188331337260
STARLINK-1122,44949,53.1605,0.000165,15.30186714,474.12392967054984,476.38554894452136,1 44949U 20001AM  26049.50728307 -.00000468  00000+0 -36626-5 0  9993,2 44949  53.1605  48.7081 0001650  74.7981 285.3202 15.30186714337290
STARLINK-1080,44961,53.0536,0.0008403,15.43818849,429.12590943069245,440.57581683347235,1 44961U 20001AZ  26049.21532823  .00097865  00000+0  21066-2 0  9995,2 44961  53.0536  20.9960 0008403  46.2431 313.9268 15.43818849337667
STARLINK-1090,44968,53.0557,0.00012,15.0638479,546.4271273689001,548.0892222108487,1 44968U 20001BG  26049.38694619  .00001067  00000+0  90524-4 0  9998,2 44968  53.0557  33.2720 0001200  94.8400 265.2726 15.06384790337504
STARLINK-1132,45044,53.1599,0.0005577,15.41009367,439.32483428848536,446.9332744455269,1 45044U 20006A   26049.21818688  .00064691  00000+0  15407-2 0  9992,2 45044  53.1599 346.0933 0005577 114.9040 245.2546 15.41009367333926
STARLINK-1131,45047,53.159,0.0001257,15.30187818,474.38997198953894,476.1129138440874,1 45047U 20006D   26049.26748552 -.00001760  00000+0 -47316-4 0  9998,2 45047  53.1590  11.1943 0001257  96.6187 263.4957 15.30187818333575
STARLINK-1134,45048,53.036,0.0010296,15.41847828,433.6352524656677,447.6765107674928,1 45048U 20006E   26049.05981273  .00057156  00000+0  13245-2 0  9995,2 45048  53.0360 331.4914 0010296 110.3648 249.8464 15.41847828334113
STARLINK-1156,45054,53.16,0.000158,15.29360764,476.6387969304633,478.80524838162364,1 45054U 20006L   26049.16119616 -.00002045  00000+0 -58545-4 0  9991,2 45054  53.1600  11.6783 0001580 106.5579 253.5595 15.29360764333554
STARLINK-1159,45057,53.0499,0.0006623,15.76704369,335.33629074369037,344.2348509810545,1 45057U 20006P   26049.91671296  .00102531  00000+0  62281-3 0  9994,2 45057  53.0499 328.8530 0006623  83.8209  30.2321 15.76704369  6015
STARLINK-1166,45060,53.0549,0.0006155,15.43229186,432.39177124968137,440.7806955499973,1 45060U 20006S   26049.87028603  .00045183  00000+0  10044-2 0  9999,2 45060  53.0549   2.1755 0006155  81.0560 279.1141 15.43229186333757
STARLINK-1169,45061,53.1591,0.0001629,15.30202052,474.09253247000925,476.32535257808377,1 45061U 20006T   26049.91671296  .00015417  00000+0  53152-3 0  9992,2 45061  53.1591   8.1936 0001629  97.5221 275.7497 15.30202052  5784
STARLINK-1171,45062,53.0482,0.0002492,15.53717583,404.192443373734,407.5735989522818,1 45062U 20006U   26049.18427253  .00090044  00000+0  13741-2 0  9992,2 45062  53.0482 343.9039 0002492 337.6370  22.4530 15.53717583333952
STARLINK-1133,45064,53.1605,0.0001235,15.30215941,474.32108977750886,476.0138559823099,1 45064U 20006W   26049.20161519 -.00004542  00000+0 -14124-3 0  9994,2 45064  53.1605 348.3176 0001235  77.8405 282.2734 15.30215941333890
STARLINK-1167,45071,53.1621,0.0001112,15.29354125,476.97948998844186,478.50423744773343,1 45071U 20006AD  26049.08820157 -.00001736  00000+0 -47839-4 0  9990,2 45071  53.1621 348.7849 0001112  78.3999 281.7126 15.29354125333878
STARLINK-1168,45072,53.161,0.0001709,15.29352851,476.57400081378364,478.917341510788,1 45072U 20006AE  26049.09802234  .00003581  00000+0  13640-3 0  9998,2 45072  53.1610 348.8014 0001709  55.8809 304.2354 15.29352851333872
STARLINK-1172,45074,53.1595,9.12e-05,15.30193184,474.61039327749495,475.86044840705654,1 45074U 20006AG  26049.24378874  .00011074  00000+0  38553-3 0  9991,2 45074  53.1595 348.1482 0000912  77.7270 282.3833 15.30193184333892
STARLINK-1153,45080,53.1594,0.0001283,15.29352243,476.86787823774284,478.6270981974203,1 45080U 20006AN  26049.20332315 -.00000579  00000+0 -77423-5 0  9995,2 45080  53.1594 348.1671 0001283  90.5185 269.5962 15.29352243333899
STARLINK-1151,45081,53.0533,0.0012434,15.55851947,391.24972047234314,408.10478896097175,1 45081U 20006AP  26049.41724986  .00081745  00000+0  11521-2 0  9994,2 45081  53.0533 333.6693 0012434  86.7158 273.5275 15.55851947334114
STARLINK-1185,45087,53.1455,0.0002364,15.27528004,481.5827739851693,484.82681638593203,1 45087U 20006AV  26049.91671296  .00051405  00000+0  18836-2 0  9996,2 45087  53.1455 329.5169 0002364  78.5003  46.2375 15.27528004  5738
STARLINK-1183,45088,53.145,0.0001609,15.2727628,482.85458249531894,485.0628048895496,1 45088U 20006AW  26049.91671296  .00970704  00000+0  33065-1 0  9999,2 45088  53.1450 329.7434 0001609 112.7475 128.0768 15.27276280  5838
STARLINK-1152,45096,53.0414,0.0007274,15.35995932,452.9913217710009,462.9364813625998,1 45096U 20006BE  26049.87268795  .00050553  00000+0  14220-2 0  9993,2 45096  53.0414 295.0643 0007274 125.0736 235.0949 15.35995932334694
STARLINK-1184,45098,53.0561,0.0006069,15.09603139,533.2147145084564,541.6088075946209,1 45098U 20006BG  26049.07263248  .00011337  00000+0  71408-3 0  9994,2 45098  53.0561 333.9579 0006069  81.6610 278.5068 15.09603139334070
STARLINK-1193,45100,53.0537,0.0005333,15.48764169,416.71458573130076,423.96584152735795,1 45100U 20006BJ  26049.13726285  .00077429  00000+0  14125-2 0  9996,2 45100  53.0537 324.5169 0005333 132.9145 227.2311 15.48764169334216
